{
  "links" : {
    "next" : "https://api.nasa.gov/neo/rest/v1/feed?start_date=1998-03-09&end_date=1998-03-09&detailed=true&api_key=t0TVs3DtDT2H8Oy2Zy8m2eVrNsAVKAexjcZXUckd",
    "prev" : "https://api.nasa.gov/neo/rest/v1/feed?start_date=1998-03-07&end_date=1998-03-07&detailed=true&api_key=t0TVs3DtDT2H8Oy2Zy8m2eVrNsAVKAexjcZXUckd",
    "self" : "https://api.nasa.gov/neo/rest/v1/feed?start_date=1998-03-08&end_date=1998-03-08&detailed=true&api_key=t0TVs3DtDT2H8Oy2Zy8m2eVrNsAVKAexjcZXUckd"
  },
  "element_count" : 7,
  "near_earth_objects" : {
    "1998-03-08" : [ {
      "links" : {
        "self" : "https://api.nasa.gov/neo/rest/v1/neo/3012991?api_key=t0TVs3DtDT2H8Oy2Zy8m2eVrNsAVKAexjcZXUckd"
      },
      "neo_reference_id" : "3012991",
      "name" : "(1998 FL5)",
      "nasa_jpl_url" : "http://ssd.jpl.nasa.gov/sbdb.cgi?sstr=3012991",
      "absolute_magnitude_h" : 21.5,
      "estimated_diameter" : {
        "kilometers" : {
          "estimated_diameter_min" : 0.1332155667,
          "estimated_diameter_max" : 0.2978790628
        },
        "meters" : {
          "estimated_diameter_min" : 133.2155666981,
          "estimated_diameter_max" : 297.8790627982
        },
        "miles" : {
          "estimated_diameter_min" : 0.0827762899,
          "estimated_diameter_max" : 0.1850934111
        },
        "feet" : {
          "estimated_diameter_min" : 437.0589598459,
          "estimated_diameter_max" : 977.2935443908
        }
      },
      "is_potentially_hazardous_asteroid" : false,
      "close_approach_data" : [ {
        "close_approach_date" : "1998-03-08",
        "epoch_date_close_approach" : 889344000000,
        "relative_velocity" : {
          "kilometers_per_second" : "8.7822626039",
          "kilometers_per_hour" : "31616.1453741394",
          "miles_per_hour" : "19645.0432187257"
        },
        "miss_distance" : {
          "astronomical" : "0.1336959304",
          "lunar" : "52.0077171326",
          "kilometers" : "20000626",
          "miles" : "12427813"
        },
        "orbiting_body" : "Earth"
      } ],
      "orbital_data" : {
        "orbit_id" : "13",
        "orbit_determination_date" : "2017-04-06 09:17:53",
        "orbit_uncertainty" : "6",
        "minimum_orbit_intersection" : ".105961",
        "jupiter_tisserand_invariant" : "4.351",
        "epoch_osculation" : "2458000.5",
        "eccentricity" : ".3646460106084088",
        "semi_major_axis" : "1.544818210356466",
        "inclination" : "14.5304542687329",
        "ascending_node_longitude" : "185.8999223139176",
        "orbital_period" : "701.3172114025334",
        "perihelion_distance" : ".9815064128347593",
        "perihelion_argument" : "297.5971915751136",
        "aphelion_distance" : "2.108130007878174",
        "perihelion_time" : "2457850.910965588201",
        "mean_anomaly" : "76.78701094551988",
        "mean_motion" : ".5133197847519696",
        "equinox" : "J2000"
      }
    }, {
      "links" : {
        "self" : "https://api.nasa.gov/neo/rest/v1/neo/3182823?api_key=t0TVs3DtDT2H8Oy2Zy8m2eVrNsAVKAexjcZXUckd"
      },
      "neo_reference_id" : "3182823",
      "name" : "(2004 KG1)",
      "nasa_jpl_url" : "http://ssd.jpl.nasa.gov/sbdb.cgi?sstr=3182823",
      "absolute_magnitude_h" : 24.1,
      "estimated_diameter" : {
        "kilometers" : {
          "estimated_diameter_min" : 0.040230458,
          "estimated_diameter_max" : 0.0899580388
        },
        "meters" : {
          "estimated_diameter_min" : 40.2304579834,
          "estimated_diameter_max" : 89.9580388169
        },
        "miles" : {
          "estimated_diameter_min" : 0.0249980399,
          "estimated_diameter_max" : 0.0558973165
        },
        "feet" : {
          "estimated_diameter_min" : 131.9896957704,
          "estimated_diameter_max" : 295.1379320721
        }
      },
      "is_potentially_hazardous_asteroid" : false,
      "close_approach_data" : [ {
        "close_approach_date" : "1998-03-08",
        "epoch_date_close_approach" : 889344000000,
        "relative_velocity" : {
          "kilometers_per_second" : "10.4221950882",
          "kilometers_per_hour" : "37519.90231766",
          "miles_per_hour" : "23313.4081928816"
        },
        "miss_distance" : {
          "astronomical" : "0.3806136317",
          "lunar" : "148.0587005615",
          "kilometers" : "56938988",
          "miles" : "35380248"
        },
        "orbiting_body" : "Earth"
      } ],
      "orbital_data" : {
        "orbit_id" : "15",
        "orbit_determination_date" : "2017-04-06 09:12:46",
        "orbit_uncertainty" : "6",
        "minimum_orbit_intersection" : ".00335624",
        "jupiter_tisserand_invariant" : "6.997",
        "epoch_osculation" : "2458000.5",
        "eccentricity" : ".4073193079080165",
        "semi_major_axis" : ".8301293866516695",
        "inclination" : "1.914256662040002",
        "ascending_node_longitude" : "243.0519125356717",
        "orbital_period" : "276.259428572244",
        "perihelion_distance" : ".4920016594066053",
        "perihelion_argument" : "213.6346689133144",
        "aphelion_distance" : "1.168257113896734",
        "perihelion_time" : "2458037.142516542470",
        "mean_anomaly" : "312.2502959502082",
        "mean_motion" : "1.303122944474842",
        "equinox" : "J2000"
      }
    }, {
      "links" : {
        "self" : "https://api.nasa.gov/neo/rest/v1/neo/3328634?api_key=t0TVs3DtDT2H8Oy2Zy8m2eVrNsAVKAexjcZXUckd"
      },
      "neo_reference_id" : "3328634",
      "name" : "(2006 FV)",
      "nasa_jpl_url" : "http://ssd.jpl.nasa.gov/sbdb.cgi?sstr=3328634",
      "absolute_magnitude_h" : 23.1,
      "estimated_diameter" : {
        "kilometers" : {
          "estimated_diameter_min" : 0.063760979,
          "estimated_diameter_max" : 0.1425738833
        },
        "meters" : {
          "estimated_diameter_min" : 63.7609789875,
          "estimated_diameter_max" : 142.5738833281
        },
        "miles" : {
          "estimated_diameter_min" : 0.0396192233,
          "estimated_diameter_max" : 0.0885912765
        },
        "feet" : {
          "estimated_diameter_min" : 209.1895703015,
          "estimated_diameter_max" : 467.7620993781
        }
      },
      "is_potentially_hazardous_asteroid" : false,
      "close_approach_data" : [ {
        "close_approach_date" : "1998-03-08",
        "epoch_date_close_approach" : 889344000000,
        "relative_velocity" : {
          "kilometers_per_second" : "4.9603034312",
          "kilometers_per_hour" : "17857.0923523109",
          "miles_per_hour" : "11095.7027452456"
        },
        "miss_distance" : {
          "astronomical" : "0.1664838852",
          "lunar" : "64.7622299194",
          "kilometers" : "24905634",
          "miles" : "15475643"
        },
        "orbiting_body" : "Earth"
      } ],
      "orbital_data" : {
        "orbit_id" : "11",
        "orbit_determination_date" : "2017-04-06 09:08:54",
        "orbit_uncertainty" : "6",
        "minimum_orbit_intersection" : ".10938",
        "jupiter_tisserand_invariant" : "4.783",
        "epoch_osculation" : "2458000.5",
        "eccentricity" : ".2317656798368139",
        "semi_major_axis" : "1.369719283583",
        "inclination" : "9.514460760449241",
        "ascending_node_longitude" : "181.0286775842173",
        "orbital_period" : "585.5254572319055",
        "perihelion_distance" : "1.052265362637792",
        "perihelion_argument" : "308.6696681576188",
        "aphelion_distance" : "1.687173204528207",
        "perihelion_time" : "2457860.765180402797",
        "mean_anomaly" : "85.91348921498631",
        "mean_motion" : ".6148323622031979",
        "equinox" : "J2000"
      }
    } ]
  }
}